CCSDS_OMM_VERS = 2.0
CREATION_DATE  = 
ORIGINATOR     = 

OBJECT_NAME    = STARLINK-36626
OBJECT_ID      = 2026-018Q
CENTER_NAME    = EARTH
REF_FRAME      = TEME
TIME_SYSTEM    = UTC
MEAN_ELEMENT_THEORY = SGP/SGP4

EPOCH          = 2026-02-16T02:54:05.683104
MEAN_MOTION    = 15.80841383
ECCENTRICITY   = .0001466
INCLINATION    = 97.2847
RA_OF_ASC_NODE = 111.8805
ARG_OF_PERICENTER = 82.4151
MEAN_ANOMALY   = 277.7284

EPHEMERIS_TYPE = 0
CLASSIFICATION_TYPE = U
NORAD_CAT_ID   = 67603
ELEMENT_SET_NO = 999
REV_AT_EPOCH   = 391
BSTAR          = .91911E-3
MEAN_MOTION_DOT = .179795E-2
MEAN_MOTION_DDOT = 0

CCSDS_OMM_VERS = 2.0
CREATION_DATE  = 
ORIGINATOR     = 

OBJECT_NAME    = STARLINK-36605
OBJECT_ID      = 2026-018R
CENTER_NAME    = EARTH
REF_FRAME      = TEME
TIME_SYSTEM    = UTC
MEAN_ELEMENT_THEORY = SGP/SGP4

EPOCH          = 2026-02-16T04:00:00.999936
MEAN_MOTION    = 15.75154046
ECCENTRICITY   = .0001228
INCLINATION    = 97.2864
RA_OF_ASC_NODE = 111.8997
ARG_OF_PERICENTER = 74.8264
MEAN_ANOMALY   = 111.8589

EPHEMERIS_TYPE = 0
CLASSIFICATION_TYPE = U
NORAD_CAT_ID   = 67604
ELEMENT_SET_NO = 999
REV_AT_EPOCH   = 388
BSTAR          = .27183E-3
MEAN_MOTION_DOT = .40544E-3
MEAN_MOTION_DDOT = 0

CCSDS_OMM_VERS = 2.0
CREATION_DATE  = 
ORIGINATOR     = 

OBJECT_NAME    = STARLINK-36281
OBJECT_ID      = 2026-018S
CENTER_NAME    = EARTH
REF_FRAME      = TEME
TIME_SYSTEM    = UTC
MEAN_ELEMENT_THEORY = SGP/SGP4

EPOCH          = 2026-02-16T02:56:51.175392
MEAN_MOTION    = 15.80884022
ECCENTRICITY   = .0001726
INCLINATION    = 97.2842
RA_OF_ASC_NODE = 111.8775
ARG_OF_PERICENTER = 99.9097
MEAN_ANOMALY   = 260.2366

EPHEMERIS_TYPE = 0
CLASSIFICATION_TYPE = U
NORAD_CAT_ID   = 67605
ELEMENT_SET_NO = 999
REV_AT_EPOCH   = 391
BSTAR          = .13268E-2
MEAN_MOTION_DOT = .262612E-2
MEAN_MOTION_DDOT = 0

CCSDS_OMM_VERS = 2.0
CREATION_DATE  = 
ORIGINATOR     = 

OBJECT_NAME    = STARLINK-35843
OBJECT_ID      = 2026-018T
CENTER_NAME    = EARTH
REF_FRAME      = TEME
TIME_SYSTEM    = UTC
MEAN_ELEMENT_THEORY = SGP/SGP4

EPOCH          = 2026-02-16T04:00:00.999936
MEAN_MOTION    = 15.75141081
ECCENTRICITY   = .0001347
INCLINATION    = 97.2841
RA_OF_ASC_NODE = 111.9149
ARG_OF_PERICENTER = 70.6520
MEAN_ANOMALY   = 148.0235

EPHEMERIS_TYPE = 0
CLASSIFICATION_TYPE = U
NORAD_CAT_ID   = 67606
ELEMENT_SET_NO = 999
REV_AT_EPOCH   = 394
BSTAR          = .70595E-3
MEAN_MOTION_DOT = .106261E-2
MEAN_MOTION_DDOT = 0

CCSDS_OMM_VERS = 2.0
CREATION_DATE  = 
ORIGINATOR     = 

OBJECT_NAME    = STARLINK-36351
OBJECT_ID      = 2026-018U
CENTER_NAME    = EARTH
REF_FRAME      = TEME
TIME_SYSTEM    = UTC
MEAN_ELEMENT_THEORY = SGP/SGP4

EPOCH          = 2026-02-16T02:51:23.131008
MEAN_MOTION    = 15.80857335
ECCENTRICITY   = .0000709
INCLINATION    = 97.2844
RA_OF_ASC_NODE = 111.8833
ARG_OF_PERICENTER = 142.5306
MEAN_ANOMALY   = 217.6011

EPHEMERIS_TYPE = 0
CLASSIFICATION_TYPE = U
NORAD_CAT_ID   = 67607
ELEMENT_SET_NO = 999
REV_AT_EPOCH   = 391
BSTAR          = .11399E-2
MEAN_MOTION_DOT = .224336E-2
MEAN_MOTION_DDOT = 0

CCSDS_OMM_VERS = 2.0
CREATION_DATE  = 
ORIGINATOR     = 

OBJECT_NAME    = STARLINK-36411
OBJECT_ID      = 2026-018V
CENTER_NAME    = EARTH
REF_FRAME      = TEME
TIME_SYSTEM    = UTC
MEAN_ELEMENT_THEORY = SGP/SGP4

EPOCH          = 2026-02-16T02:49:25.372128
MEAN_MOTION    = 15.80859026
ECCENTRICITY   = .0001643
INCLINATION    = 97.2851
RA_OF_ASC_NODE = 111.8839
ARG_OF_PERICENTER = 75.6025
MEAN_ANOMALY   = 284.5425

EPHEMERIS_TYPE = 0
CLASSIFICATION_TYPE = U
NORAD_CAT_ID   = 67608
ELEMENT_SET_NO = 999
REV_AT_EPOCH   = 391
BSTAR          = .1087E-2
MEAN_MOTION_DOT = .213674E-2
MEAN_MOTION_DDOT = 0

CCSDS_OMM_VERS = 2.0
CREATION_DATE  = 
ORIGINATOR     = 

OBJECT_NAME    = STARLINK-36312
OBJECT_ID      = 2026-018W
CENTER_NAME    = EARTH
REF_FRAME      = TEME
TIME_SYSTEM    = UTC
MEAN_ELEMENT_THEORY = SGP/SGP4

EPOCH          = 2026-02-16T04:18:52.101216
MEAN_MOTION    = 15.80870295
ECCENTRICITY   = .0001295
INCLINATION    = 97.2850
RA_OF_ASC_NODE = 111.9525
ARG_OF_PERICENTER = 57.3300
MEAN_ANOMALY   = 302.8093

EPHEMERIS_TYPE = 0
CLASSIFICATION_TYPE = U
NORAD_CAT_ID   = 67609
ELEMENT_SET_NO = 999
REV_AT_EPOCH   = 392
BSTAR          = .13461E-2
MEAN_MOTION_DOT = .266398E-2
MEAN_MOTION_DDOT = 0

CCSDS_OMM_VERS = 2.0
CREATION_DATE  = 
ORIGINATOR     = 

OBJECT_NAME    = STARLINK-36387
OBJECT_ID      = 2026-018X
CENTER_NAME    = EARTH
REF_FRAME      = TEME
TIME_SYSTEM    = UTC
MEAN_ELEMENT_THEORY = SGP/SGP4

EPOCH          = 2026-02-16T04:16:47.720640
MEAN_MOTION    = 15.80847306
ECCENTRICITY   = .0001323
INCLINATION    = 97.2855
RA_OF_ASC_NODE = 111.9543
ARG_OF_PERICENTER = 98.9321
MEAN_ANOMALY   = 261.2097

EPHEMERIS_TYPE = 0
CLASSIFICATION_TYPE = U
NORAD_CAT_ID   = 67610
ELEMENT_SET_NO = 999
REV_AT_EPOCH   = 392
BSTAR          = .99867E-3
MEAN_MOTION_DOT = .195784E-2
MEAN_MOTION_DDOT = 0

CCSDS_OMM_VERS = 2.0
CREATION_DATE  = 
ORIGINATOR     = 

OBJECT_NAME    = STARLINK-36636
OBJECT_ID      = 2026-018Y
CENTER_NAME    = EARTH
REF_FRAME      = TEME
TIME_SYSTEM    = UTC
MEAN_ELEMENT_THEORY = SGP/SGP4

EPOCH          = 2026-02-16T04:15:16.277472
MEAN_MOTION    = 15.80603928
ECCENTRICITY   = .0003244
INCLINATION    = 97.2742
RA_OF_ASC_NODE = 111.9487
ARG_OF_PERICENTER = 11.8280
MEAN_ANOMALY   = 348.3064

EPHEMERIS_TYPE = 0
CLASSIFICATION_TYPE = U
NORAD_CAT_ID   = 67611
ELEMENT_SET_NO = 999
REV_AT_EPOCH   = 392
BSTAR          = -.13042E-2
MEAN_MOTION_DOT = -.240963E-2
MEAN_MOTION_DDOT = 0

CCSDS_OMM_VERS = 2.0
CREATION_DATE  = 
ORIGINATOR     = 

OBJECT_NAME    = STARLINK-36407
OBJECT_ID      = 2026-018Z
CENTER_NAME    = EARTH
REF_FRAME      = TEME
TIME_SYSTEM    = UTC
MEAN_ELEMENT_THEORY = SGP/SGP4

EPOCH          = 2026-02-16T04:13:56.129376
MEAN_MOTION    = 15.80851342
ECCENTRICITY   = .0001262
INCLINATION    = 97.2853
RA_OF_ASC_NODE = 111.9569
ARG_OF_PERICENTER = 64.6234
MEAN_ANOMALY   = 295.5165

EPHEMERIS_TYPE = 0
CLASSIFICATION_TYPE = U
NORAD_CAT_ID   = 67612
ELEMENT_SET_NO = 999
REV_AT_EPOCH   = 397
BSTAR          = .74817E-3
MEAN_MOTION_DOT = .145822E-2
MEAN_MOTION_DDOT = 0

CCSDS_OMM_VERS = 2.0
CREATION_DATE  = 
ORIGINATOR     = 

OBJECT_NAME    = STARLINK-36597
OBJECT_ID      = 2026-018AA
CENTER_NAME    = EARTH
REF_FRAME      = TEME
TIME_SYSTEM    = UTC
MEAN_ELEMENT_THEORY = SGP/SGP4

EPOCH          = 2026-02-16T04:12:27.562464
MEAN_MOTION    = 15.80865649
ECCENTRICITY   = .000137
INCLINATION    = 97.2853
RA_OF_ASC_NODE = 111.9575
ARG_OF_PERICENTER = 106.8135
MEAN_ANOMALY   = 253.3284

EPHEMERIS_TYPE = 0
CLASSIFICATION_TYPE = U
NORAD_CAT_ID   = 67613
ELEMENT_SET_NO = 999
REV_AT_EPOCH   = 392
BSTAR          = .12687E-2
MEAN_MOTION_DOT = .250542E-2
MEAN_MOTION_DDOT = 0

CCSDS_OMM_VERS = 2.0
CREATION_DATE  = 
ORIGINATOR     = 

OBJECT_NAME    = NEONSAT-1A
OBJECT_ID      = 2026-019A
CENTER_NAME    = EARTH
REF_FRAME      = TEME
TIME_SYSTEM    = UTC
MEAN_ELEMENT_THEORY = SGP/SGP4

EPOCH          = 2026-02-16T00:15:18.176256
MEAN_MOTION    = 15.07606044
ECCENTRICITY   = .0012089
INCLINATION    = 97.4097
RA_OF_ASC_NODE = 171.3679
ARG_OF_PERICENTER = 246.2086
MEAN_ANOMALY   = 113.7875

EPHEMERIS_TYPE = 0
CLASSIFICATION_TYPE = U
NORAD_CAT_ID   = 67614
ELEMENT_SET_NO = 999
REV_AT_EPOCH   = 255
BSTAR          = .19234E-3
MEAN_MOTION_DOT = .2871E-4
MEAN_MOTION_DDOT = 0

