STARLINK-36626          
1 67603U 26018Q   26047.12089911  .00179795  00000+0  91911-3 0  9990
2 67603  97.2847 111.8805 0001466  82.4151 277.7284 15.80841383  3914
STARLINK-36605          
1 67604U 26018R   26047.16667824  .00040544  00000+0  27183-3 0  9999
2 67604  97.2864 111.8997 0001228  74.8264 111.8589 15.75154046  3881
STARLINK-36281          
1 67605U 26018S   26047.12281453  .00262612  00000+0  13268-2 0  9996
2 67605  97.2842 111.8775 0001726  99.9097 260.2366 15.80884022  3913
STARLINK-35843          
1 67606U 26018T   26047.16667824  .00106261  00000+0  70595-3 0  9995
2 67606  97.2841 111.9149 0001347  70.6520 148.0235 15.75141081  3941
STARLINK-36351          
1 67607U 26018U   26047.11901772  .00224336  00000+0  11399-2 0  9994
2 67607  97.2844 111.8833 0000709 142.5306 217.6011 15.80857335  3910
STARLINK-36411          
1 67608U 26018V   26047.11765477  .00213674  00000+0  10870-2 0  9991
2 67608  97.2851 111.8839 0001643  75.6025 284.5425 15.80859026  3918
STARLINK-36312          
1 67609U 26018W   26047.17976969  .00266398  00000+0  13461-2 0  9998
2 67609  97.2850 111.9525 0001295  57.3300 302.8093 15.80870295  3924
STARLINK-36387          
1 67610U 26018X   26047.17833010  .00195784  00000+0  99867-3 0  9994
2 67610  97.2855 111.9543 0001323  98.9321 261.2097 15.80847306  3926
STARLINK-36636          
1 67611U 26018Y   26047.17727173 -.00240963  00000+0 -13042-2 0  9999
2 67611  97.2742 111.9487 0003244  11.8280 348.3064 15.80603928  3922
STARLINK-36407          
1 67612U 26018Z   26047.17634409  .00145822  00000+0  74817-3 0  9993
2 67612  97.2853 111.9569 0001262  64.6234 295.5165 15.80851342  3975
STARLINK-36597          
1 67613U 26018AA  26047.17531901  .00250542  00000+0  12687-2 0  9999
2 67613  97.2853 111.9575 0001370 106.8135 253.3284 15.80865649  3926
NEONSAT-1A              
1 67614U 26019A   26047.01062704  .00002871  00000+0  19234-3 0  9990
2 67614  97.4097 171.3679 0012089 246.2086 113.7875 15.07606044  2551
